
# Worst residual: 182.30 km
# MJD 61018.000000 (2025 Dec  9  0:00)
ZTF107w = ZTF104G = A11rRE8 = A11tUfy = ZTF1083
1 79866U 25000ZYS 25343.49919926  .00000000  00000-0  00000-0 0 28743
2 79866 013.1009 055.4242 7149759 190.7715 313.3839 01.03417763    08

# Worst residual: 162.33 km
# MJD 61019.000000 (2025 Dec 10  0:00)
ZTF107w = ZTF104G = A11rRE8 = A11tUfy = ZTF1083
1 79866U 25000ZYS 25344.49919926  .00000000  00000-0  00000-0 0 28744
2 79866 013.3011 055.5463 7129974 191.3319 324.5347 01.03474660    00

# Worst residual: 142.49 km
# MJD 61020.000000 (2025 Dec 11  0:00)
ZTF107w = ZTF104G = A11rRE8 = A11tUfy = ZTF1083
1 79866U 25000ZYS 25345.49919926  .00000000  00000-0  00000-0 0 28745
2 79866 013.4987 055.6694 7108336 191.8865 335.7098 01.03528205    02

# Worst residual: 147.35 km
# MJD 61021.000000 (2025 Dec 12  0:00)
ZTF107w = ZTF104G = A11rRE8 = A11tUfy = ZTF1083
1 79866U 25000ZYS 25346.49919926  .00000000  00000-0  00000-0 0 28746
2 79866 013.6920 055.7946 7086401 192.4333 346.9110 01.03579544    08

# Worst residual: 136.97 km
# MJD 61022.000000 (2025 Dec 13  0:00)
ZTF107w = ZTF104G = A11rRE8 = A11tUfy = ZTF1083
1 79866U 25000ZYS 25347.49919926  .00000000  00000-0  00000-0 0 28747
2 79866 013.8626 055.9010 7064499 193.0038 358.1098 01.03614358    02

# Worst residual: 138.03 km
# MJD 61023.000000 (2025 Dec 14  0:00)
ZTF107w = ZTF104G = A11rRE8 = A11tUfy = ZTF1083
1 79866U 25000ZYS 25348.49919926  .00000000  00000-0  00000-0 0 28748
2 79866 014.0559 056.0332 7040526 193.5415 009.3057 01.03654074    07

# Worst residual: 118.89 km
# MJD 61024.000000 (2025 Dec 15  0:00)
ZTF107w = ZTF104G = A11rRE8 = A11tUfy = ZTF1083
1 79866U 25000ZYS 25349.49919926  .00000000  00000-0  00000-0 0 28749
2 79866 014.2447 056.1660 7016994 194.0918 020.5147 01.03677967    07

# Worst residual: 119.54 km
# MJD 61025.000000 (2025 Dec 16  0:00)
ZTF107w = ZTF104G = A11rRE8 = A11tUfy = ZTF1083
1 79866U 25000ZYS 25350.49919926  .00000000  00000-0  00000-0 0 28741
2 79866 014.4236 056.2948 6992572 194.6368 031.7416 01.03689605    09

# Worst residual: 143.58 km
# MJD 61026.000000 (2025 Dec 17  0:00)
ZTF107w = ZTF104G = A11rRE8 = A11tUfy = ZTF1083
1 79866U 25000ZYS 25351.49919926  .00000000  00000-0  00000-0 0 28742
2 79866 014.5895 056.4101 6967794 195.2078 042.9368 01.03687456    09

# Worst residual: 165.75 km
# MJD 61027.000000 (2025 Dec 18  0:00)
ZTF107w = ZTF104G = A11rRE8 = A11tUfy = ZTF1083
1 79866U 25000ZYS 25352.49919926  .00000000  00000-0  00000-0 0 28743
2 79866 014.7578 056.5464 6942660 195.7586 054.1417 01.03674781    03

# Worst residual: 181.90 km
# MJD 61028.000000 (2025 Dec 19  0:00)
ZTF107w = ZTF104G = A11rRE8 = A11tUfy = ZTF1083
1 79866U 25000ZYS 25353.49919926  .00000000  00000-0  00000-0 0 28744
2 79866 014.9053 056.6457 6918834 196.3353 065.3335 01.03654326    07

# Worst residual: 187.62 km
# MJD 61029.000000 (2025 Dec 20  0:00)
ZTF107w = ZTF104G = A11rRE8 = A11tUfy = ZTF1083
1 79866U 25000ZYS 25354.49919926  .00000000  00000-0  00000-0 0 28745
2 79866 015.0652 056.7675 6892917 196.9197 076.5002 01.03614693    00

# Worst residual: 185.86 km
# MJD 61030.000000 (2025 Dec 21  0:00)
ZTF107w = ZTF104G = A11rRE8 = A11tUfy = ZTF1083
1 79866U 25000ZYS 25355.49919926  .00000000  00000-0  00000-0 0 28746
2 79866 015.2204 056.8878 6866063 197.5154 087.6327 01.03570993    01

# Worst residual: 179.63 km
# MJD 61031.000000 (2025 Dec 22  0:00)
ZTF107w = ZTF104G = A11rRE8 = A11tUfy = ZTF1083
1 79866U 25000ZYS 25356.49919926  .00000000  00000-0  00000-0 0 28747
2 79866 015.3908 057.0167 6837855 198.1146 098.7466 01.03514996    00

# Worst residual: 188.88 km
# MJD 61032.000000 (2025 Dec 23  0:00)
ZTF107w = ZTF104G = A11rRE8 = A11tUfy = ZTF1083
1 79866U 25000ZYS 25357.49919926  .00000000  00000-0  00000-0 0 28748
2 79866 015.5232 057.1369 6809803 198.7043 109.8972 01.03479581    07

# Worst residual: 202.46 km
# MJD 61033.000000 (2025 Dec 24  0:00)
ZTF107w = ZTF104G = A11rRE8 = A11tUfy = ZTF1083
1 79866U 25000ZYS 25358.49919926  .00000000  00000-0  00000-0 0 28749
2 79866 015.6681 057.2617 6780383 199.3193 120.9846 01.03434206    06

# Worst residual: 216.52 km
# MJD 61034.000000 (2025 Dec 25  0:00)
ZTF107w = ZTF104G = A11rRE8 = A11tUfy = ZTF1083
1 79866U 25000ZYS 25359.49919926  .00000000  00000-0  00000-0 0 28740
2 79866 015.8105 057.3891 6748387 199.9374 132.0589 01.03383107    00

# Worst residual: 212.31 km
# MJD 61035.000000 (2025 Dec 26  0:00)
ZTF107w = ZTF104G = A11rRE8 = A11tUfy = ZTF1083
1 79866U 25000ZYS 25360.49919926  .00000000  00000-0  00000-0 0 28742
2 79866 015.9492 057.5194 6715112 200.5469 143.1471 01.03331450    09

# Worst residual: 174.57 km
# MJD 61036.000000 (2025 Dec 27  0:00)
ZTF107w = ZTF104G = A11rRE8 = A11tUfy = ZTF1083
1 79866U 25000ZYS 25361.49919926  .00000000  00000-0  00000-0 0 28743
2 79866 016.0809 057.6466 6682222 201.1596 154.2350 01.03289476    08

# Worst residual: 147.74 km
# MJD 61037.000000 (2025 Dec 28  0:00)
ZTF107w = ZTF104G = A11rRE8 = A11tUfy = ZTF1083
1 79866U 25000ZYS 25362.49919926  .00000000  00000-0  00000-0 0 28744
2 79866 016.2079 057.7709 6647712 201.7871 165.2943 01.03249107    04

# Worst residual: 138.25 km
# MJD 61038.000000 (2025 Dec 29  0:00)
ZTF107w = ZTF104G = A11rRE8 = A11tUfy = ZTF1083
1 79866U 25000ZYS 25363.49919926  .00000000  00000-0  00000-0 0 28745
2 79866 016.3322 057.8974 6610453 202.4107 176.3543 01.03198464    01

# Worst residual: 108.93 km
# MJD 61039.000000 (2025 Dec 30  0:00)
ZTF107w = ZTF104G = A11rRE8 = A11tUfy = ZTF1083
1 79866U 25000ZYS 25364.49919926  .00000000  00000-0  00000-0 0 28746
2 79866 016.4513 058.0402 6572112 203.0033 187.4452 01.03144869    09

# Worst residual: 76.79 km
# MJD 61040.000000 (2025 Dec 31  0:00)
ZTF107w = ZTF104G = A11rRE8 = A11tUfy = ZTF1083
1 79866U 25000ZYS 25365.49919926  .00000000  00000-0  00000-0 0 28747
2 79866 016.5613 058.1370 6535442 203.6419 198.5352 01.03090645    09
